C/2014 M1 (PANSTARRS),e,160.2210,234.7984,337.1933,61801,0.0000001,0.99990939,0.0000,08/28.1029/2015,2000,g  9.0,4.0
# From MPC 91614
P/2014 M4 (PANSTARRS),e,3.3351,263.2750,147.9568,5.875539,0.0692042,0.59380712,145.0721,09/20.0/2020,2000,g 15.0,4.0
# From MPC103844
P/2014 MG4 (Spacewatch-PANSTARRS),e,9.3713,311.7343,299.0895,5.011785,0.0878447,0.25983533,232.8498,09/20.0/2020,2000,g  9.5,4.0
# From MPC 98560
P/2014 O3 (PANSTARRS),e,7.8079,87.6417,204.5594,7.561719,0.0473994,0.38629909,111.1179,09/20.0/2020,2000,g 10.5,4.0
# From MPEC 2020-AA5
C/2014 OE4 (PANSTARRS),h,12/12.7539/2016,81.3238,240.4088,65.8753,1.002927,6.248536,2000,11.0,2.0
# From MPC115880
C/2014 R3 (PANSTARRS),e,90.9153,334.0937,113.4532,10029,0.0000010,0.99927460,0.0000,08/08.8261/2016,2000,g  6.5,4.0
# From MPC 91615
P/2014 R5 (Lemmon-PANSTARRS),e,1.0883,126.5567,213.7143,4.056696,0.1206272,0.41349204,275.7930,09/20.0/2020,2000,g 15.0,4.0
# From MPC104790
C/2014 S2 (PANSTARRS),e,64.5017,8.1379,87.3207,170.1098,0.0004442,0.98776515,0.0000,12/09.0200/2015,2000,g 10.0,4.0
# From MPC 91616
P/2014 U4 (PANSTARRS),e,6.4282,11.9019,347.7269,3.508333,0.1499867,0.46526685,338.0280,09/20.0/2020,2000,g 18.0,4.0
# From MPC 95211
P/2014 V1 (PANSTARRS),e,22.5132,166.2031,177.5604,5.481692,0.0767949,0.53405142,158.7536,09/20.0/2020,2000,g 14.0,4.0
# From MPC 93586
P/2014 W1 (PANSTARRS),e,8.8389,246.2459,152.2711,4.461066,0.1046035,0.38865089,235.8826,09/20.0/2020,2000,g 15.5,4.0
# From MPEC 2020-R04
C/2014 W2 (PANSTARRS),e,82.0516,69.9760,84.9387,573.7448,0.0000717,0.99534022,0.0000,03/08.1409/2016,2000,g  7.5,4.0
# From MPC105542
P/2014 W4 (PANSTARRS),e,15.2706,33.3522,67.8899,6.600518,0.0581215,0.35204705,100.2933,09/20.0/2020,2000,g 11.0,4.0
# From MPC 91616
C/2014 W8 (PANSTARRS),e,41.9770,224.8178,227.9572,168.3262,0.0004513,0.97019712,0.0000,09/08.6124/2015,2000,g 11.0,4.0
# From MPC115880
C/2014 W10 (PANSTARRS),e,82.8760,43.1132,43.6536,819.7528,0.0000420,0.99076044,0.0000,03/04.3876/2016,2000,g  8.0,4.0
# From MPC 93587
P/2014 W12 (Gibbs),e,8.5141,299.2895,36.9140,3.518028,0.1493672,0.52407254,319.3223,09/20.0/2020,2000,g 15.0,4.0
# From MPC 94281
P/2014 X1 (Elenin),e,26.0006,61.5032,33.9927,6.210573,0.0636805,0.70850876,133.0078,09/20.0/2020,2000,g 15.0,4.0
# From MPC100579
C/2014 Y1 (PANSTARRS),h,01/16.2691/2016,14.9106,19.5534,182.3324,1.001503,2.253113,2000,9.5,4.0
# From MPC 92275
P/2015 A3 (PANSTARRS),e,172.5286,277.1665,249.2257,7.807368,0.0451801,0.85150175,92.1963,09/20.0/2020,2000,g 20.0,4.0
# From MPC 99270
P/2015 B1 (PANSTARRS),e,18.0281,353.0344,188.8084,9.500473,0.0336578,0.36878023,61.6260,09/20.0/2020,2000,g  8.5,4.0
# From MPC108592
C/2015 B2 (PANSTARRS),e,104.9990,341.8567,284.7161,126310,0.0000000,0.99997332,0.0000,05/05.7207/2016,2000,g  9.5,4.0
# From MPC109141
P/2015 B4 (Lemmon-PANSTARRS),e,1.7600,266.0254,227.4931,8.534608,0.0395302,0.56044826,81.1890,09/20.0/2020,2000,g 11.0,4.0
# From MPC101096
P/2015 C1 (TOTAS-Gibbs),e,13.8881,348.8267,178.3547,6.586898,0.0583019,0.56025506,114.9610,09/20.0/2020,2000,g 12.5,4.0
# From MPC119995
C/2015 D3 (PANSTARRS),h,05/02.7993/2016,128.5473,157.0530,2.9767,1.003791,8.146339,2000,5.5,4.0
# From MPC109141
P/2015 D5 (Kowalski),e,20.4970,74.0601,39.9290,8.974197,0.0366615,0.48883004,86.6637,09/20.0/2020,2000,g  9.0,4.0
# From MPC 96866
P/2015 D6 (Lemmon-PANSTARRS),e,20.2041,46.0638,125.2145,7.147941,0.0515742,0.36216594,98.1991,09/20.0/2020,2000,g 10.5,4.0
# From MPC112390
C/2015 ER61 (PANSTARRS),e,6.3412,235.1747,68.2750,482.2942,0.0000931,0.99783857,0.0000,05/10.4223/2017,2000,g 11.0,2.0
# From MPEC 2018-BF5
C/2015 E61-B (PANSTARRS),e,6.3428,235.2099,68.3642,1304,0.0000209,0.99919939,0.0000,05/10.3998/2017,2000,g 13.5,2.0
# From MPC109142
P/2015 F1 (PANSTARRS),e,2.8025,40.3962,187.4447,3.523315,0.1490311,0.27813332,300.0175,09/20.0/2020,2000,g 12.5,4.0
# From MPC102096
C/2015 GX (PANSTARRS),e,90.2507,235.4541,108.7907,16.15999,0.0151720,0.87871070,28.0714,09/20.0/2020,2000,g 14.0,4.0
# From MPC117068
C/2015 H2 (PANSTARRS),h,09/14.2808/2016,33.6593,350.6826,288.0754,1.005644,4.976279,2000,7.5,4.0
# From MPEC 2020-R04
P/2015 HG16 (PANSTARRS),e,18.8190,59.0082,47.3073,4.749470,0.0952218,0.35042169,217.0766,09/20.0/2020,2000,g 12.5,4.0
# From MPC101096
C/2015 J2 (PANSTARRS),e,17.2692,56.7701,203.9247,296.7677,0.0001928,0.98538887,0.0000,09/09.9001/2015,2000,g 10.0,4.0
# From MPC 95733
P/2015 J3 (NEOWISE),e,8.1310,111.3515,129.4462,3.348569,0.1608478,0.55441557,325.5560,09/20.0/2020,2000,g 16.5,4.0
# From MPC 95213
P/2015 K5 (PANSTARRS),e,39.9452,134.1787,106.3198,6.719485,0.0565848,0.55373828,109.3786,09/20.0/2020,2000,g 13.5,4.0
# From MPC107684
P/2015 M2 (PANSTARRS),e,3.9732,86.5813,225.3504,7.226609,0.0507344,0.18110028,93.2869,09/20.0/2020,2000,g  8.5,4.0
# From MPC115881
C/2015 M3 (PANSTARRS),e,65.8695,142.9957,123.9205,138.8087,0.0006027,0.97434145,0.0000,08/26.0026/2015,2000,g 12.0,4.0
# From MPC112390
C/2015 O1 (PANSTARRS),h,02/19.5162/2018,127.2263,299.8518,89.6339,1.000979,3.729872,2000,6.5,4.0
# From MPC 99819
P/2015 P4 (PANSTARRS),e,8.7178,104.7655,280.5737,6.050412,0.0662257,0.58441857,112.9505,09/20.0/2020,2000,g 14.0,4.0
# From MPC102952
P/2015 PD229 (Cameron-ISON),e,2.0262,342.6383,352.4039,7.180971,0.0512188,0.32810794,95.4080,09/20.0/2020,2000,g 11.5,2.0
# From MPC 99819
P/2015 Q1 (Scotti),e,22.3874,202.9650,199.8520,3.472232,0.1523320,0.47843222,282.0617,09/20.0/2020,2000,g 14.0,4.0
# From MPC 96867
P/2015 Q2 (Pimentel),e,146.4844,228.4006,244.4563,7.346451,0.0494980,0.75098259,91.1260,09/20.0/2020,2000,g 15.5,4.0
# From MPC 98562
P/2015 R1 (PANSTARRS),e,22.6766,48.4500,300.4063,5.880678,0.0691135,0.63395199,132.1047,09/20.0/2020,2000,g 14.0,4.0
# From MPC 95734
P/2015 R2 (PANSTARRS),e,15.4772,168.6032,149.7364,4.488825,0.1036347,0.45277008,199.7282,09/20.0/2020,2000,g 14.5,4.0
# From MPC117068
C/2015 T2 (PANSTARRS),e,124.5499,51.0352,30.6587,2162,0.0000098,0.99679282,0.0000,05/18.5770/2017,2000,g  8.0,4.0
# From MPC 96280
P/2015 T3 (PANSTARRS),e,13.0937,120.5019,178.6330,4.326181,0.1095335,0.50818108,359.9227,12/21.0/2014,2000,g 14.0,4.0
# From MPC102953
C/2015 T4 (PANSTARRS),e,87.9817,251.8155,270.0667,79.92334,0.0013794,0.97123744,0.0000,06/17.0556/2016,2000,g 11.0,4.0
# From MPC102097
C/2015 T5 (Sheppard-Tholen),e,11.0502,311.0715,61.8286,28.13138,0.0066057,0.66825735,11.2425,09/20.0/2020,2000,g  7.5,4.0
# From MPC102953
P/2015 TO19 (Lemmon-PANSTARRS),e,6.4995,321.6497,89.1494,4.556649,0.1013295,0.35795874,168.1830,09/20.0/2020,2000,g 14.0,4.0
# From MPC110080
P/2015 TP200 (LINEAR),e,8.7758,6.9907,82.6547,7.277885,0.0501991,0.53489515,71.4751,09/20.0/2020,2000,g 11.0,4.0
# From MPC101097
C/2015 TQ209 (LINEAR),e,11.3028,223.3576,282.1710,612.8435,0.0000650,0.99768903,0.0000,08/25.6715/2016,2000,g 10.5,4.0
# From MPC115881
C/2015 V1 (PANSTARRS),e,139.2237,197.1887,179.6210,2768,0.0000068,0.99845788,0.0000,12/17.0462/2017,2000,g  6.5,4.0
# From MPC112390
C/2015 V2 (Johnson),h,06/12.0254/2017,49.8630,69.8812,164.9962,1.001872,1.643096,2000,5.0,4.0
# From MPC102953
C/2015 V3 (PANSTARRS),e,86.2520,2.2301,0.7260,634.6066,0.0000617,0.99333039,0.0000,11/24.0333/2015,2000,g  9.0,4.0
# From MPC104791
C/2015 V4 (PANSTARRS),e,60.7785,179.9269,307.0052,18.48465,0.0124019,0.70451127,18.3989,09/20.0/2020,2000,g  8.5,4.0
# From MPC115881
C/2015 VL62 (Lemmon-Yeung-PANSTARRS),h,08/27.9294/2017,165.8159,95.0960,128.7656,1.001147,2.716382,2000,8.0,4.0
# From MPC102098
C/2015 WZ (PANSTARRS),e,134.6029,40.1700,66.7162,146.7025,0.0005547,0.99059414,0.0000,04/13.8073/2016,2000,g 15.0,4.0
# From MPC109142
C/2015 W1 (Gibbs),e,87.3633,114.3163,48.1801,3976,0.0000039,0.99943589,0.0000,05/14.1891/2016,2000,g 13.0,4.0
# From MPC101098
P/2015 W2 (Catalina),e,11.6070,294.2558,117.5155,7.297655,0.0499953,0.63367077,90.8223,09/20.0/2020,2000,g 13.0,4.0
# From MPC101098
P/2015 X1 (PANSTARRS),e,12.1516,161.7720,218.9555,3.631258,0.1424356,0.41898355,257.8292,09/20.0/2020,2000,g 16.0,4.0
# From MPEC 2020-AA5
C/2015 XY1 (Lemmon),h,04/27.9864/2018,148.8553,281.6238,196.2441,1.003155,7.924510,2000,5.5,4.0
# From MPC100281
C/2015 X2 (Catalina),e,72.0726,101.0988,42.3402,15.78907,0.0157098,0.87796715,27.3029,09/20.0/2020,2000,g 16.0,4.0
# From MPC 97498
P/2015 X3 (PANSTARRS),e,24.3848,77.3219,306.6525,5.010269,0.0878845,0.43862903,164.3716,09/20.0/2020,2000,g 15.0,4.0
# From MPC109142
C/2015 X4 (Elenin),e,29.5051,262.6070,176.2214,17.94009,0.0129708,0.81111312,23.1349,09/20.0/2020,2000,g 10.0,4.0
# From MPC119995
C/2015 X5 (PANSTARRS),h,12/29.6346/2017,124.3082,122.3466,27.6700,1.002179,6.797937,2000,7.5,4.0
# From MPC115881
P/2015 X6 (PANSTARRS),e,4.5648,106.9468,329.8716,2.753079,0.2157625,0.17250096,354.1451,09/20.0/2020,2000,g 16.0,4.0
# From MPC109143
C/2015 X7 (ATLAS),e,57.5606,139.9258,348.4071,23044,0.0000003,0.99984018,0.0000,07/29.2647/2016,2000,g  9.0,4.0
# From MPC107048
C/2015 X8 (NEOWISE),e,155.1835,191.1601,20.3959,19.74852,0.0112306,0.94007061,20.1320,09/20.0/2020,2000,g 16.0,4.0
# From MPC109143
C/2015 Y1 (LINEAR),e,71.1653,135.8174,24.6717,246.5164,0.0002546,0.98979190,0.0000,05/13.7755/2016,2000,g 12.0,4.0
# From MPC105543
C/2015 YG1 (NEOWISE),e,57.2915,350.5646,102.4665,16.99353,0.0140695,0.87854178,25.5955,09/20.0/2020,2000,g 13.0,4.0
# From MPC119995
C/2016 A1 (PANSTARRS),h,11/22.6838/2017,121.2052,128.2073,10.2543,1.001509,5.323669,2000,6.0,4.0
# From MPC100282
P/2016 A2 (Christensen),e,26.4070,291.6138,141.5529,4.750465,0.0951919,0.27084725,182.7222,09/20.0/2020,2000,g 11.5,4.0
# From MPC115881
P/2016 A3 (PANSTARRS),e,8.5103,187.2720,340.9613,7.890162,0.0444708,0.38746593,55.1258,09/20.0/2020,2000,g 10.0,4.0
# From MPC109143
C/2016 A6 (PANSTARRS),e,120.9354,300.3778,141.0294,205.0726,0.0003356,0.98828346,0.0000,11/06.5264/2015,2000,g 15.0,4.0
# From MPC102098
P/2016 A7 (PANSTARRS),e,16.6228,221.4851,352.6293,5.031557,0.0873274,0.56531993,145.7777,09/20.0/2020,2000,g 16.0,4.0
# From MPC106345
